     2.11           N: GPS NAV DATA                         RINEX VERSION / TYPE
teqc  2016Apr1      IGN                 20160609 00:57:06UTCPGM / RUN BY / DATE
    17                                                      LEAP SECONDS
    6.5193D-09  2.2352D-08 -5.9605D-08 -1.1921D-07          ION ALPHA
    8.6016D+04  9.8304D+04 -6.5536D+04 -5.2429D+05          ION BETA
    0.000000000000D+00-2.664535259100D-15   405504     1900 DELTA-UTC: A0,A1,T,W
                                                            END OF HEADER
21 16  6  8 19 59 44.0-5.252459086478D-04-1.136868377216D-12 0.000000000000D+00
    1.000000000000D+00-5.481250000000D+01 4.877703175916D-09-1.366630777452D+00
   -2.725049853325D-06 2.335077757016D-02 1.031905412674D-05 5.153608297348D+03
    3.311840000000D+05 1.080334186554D-07-2.444494860554D+00 6.370246410370D-07
    9.366212458058D-01 1.655625000000D+02-1.784576166440D+00-8.196769999800D-09
   -4.678766317969D-11 1.000000000000D+00 1.900000000000D+03 0.000000000000D+00
    2.000000000000D+00 0.000000000000D+00-1.024454832077D-08 1.000000000000D+00
    3.282060000000D+05 4.000000000000D+00
 4 16  6  8 20  0  0.0-2.574995160103D-04-5.684341886081D-13 0.000000000000D+00
    1.080000000000D+02 7.253125000000D+01 5.528444567621D-09-2.726172111988D+00
    3.561377525330D-06 8.500282885507D-03 3.494322299957D-06 5.153648656845D+03
    3.312000000000D+05 1.173466444016D-07 1.795525822995D+00-1.192092895508D-07
    9.830571505162D-01 3.250312500000D+02 8.940422148926D-01-8.009262189347D-09
    3.053698627377D-10 1.000000000000D+00 1.900000000000D+03 0.000000000000D+00
    4.000000000000D+00 6.300000000000D+01-1.955777406693D-08 1.080000000000D+02
    3.240000000000D+05 4.000000000000D+00
 7 16  6  8 20  0  0.0 4.496793262661D-04-2.387423592154D-12 0.000000000000D+00
    7.500000000000D+01 6.500000000000D+01 4.200889269614D-09-3.475569378501D-01
    3.518536686897D-06 9.548426256515D-03 1.060776412487D-05 5.153650024414D+03
    3.312000000000D+05 9.685754776001D-08 7.481987533213D-01 8.381903171539D-08
    9.664754129632D-01 1.781250000000D+02-2.675385834159D+00-7.952116951876D-09
   -9.214669542259D-11 1.000000000000D+00 1.900000000000D+03 0.000000000000D+00
    2.000000000000D+00 0.000000000000D+00-1.117587089539D-08 7.500000000000D+01
    3.240000000000D+05 4.000000000000D+00
 8 16  6  8 20  0  0.0-3.827130421996D-05-1.477928890381D-12 0.000000000000D+00
    4.100000000000D+01-9.187500000000D+01 4.785556480493D-09-2.940867069798D+00
   -4.591420292854D-06 1.735081197694D-03 3.846362233162D-06 5.153703844070D+03
    3.312000000000D+05-5.215406417847D-08 2.812517751694D+00 1.229345798492D-07
    9.636322609345D-01 3.074687500000D+02-1.076514179834D+00-8.367848554480D-09
   -1.857220217820D-10 1.000000000000D+00 1.900000000000D+03 0.000000000000D+00
    2.000000000000D+00 0.000000000000D+00 4.656612873077D-09 4.100000000000D+01
    3.240000000000D+05 4.000000000000D+00
10 16  6  8 20  0  0.0-4.112906754017D-05-8.412825991400D-12 0.000000000000D+00
    2.200000000000D+01 2.996875000000D+01 4.599477300977D-09-1.977423380467D+00
    1.553446054459D-06 1.538950833492D-03 7.463619112968D-06 5.153675878525D+03
    3.312000000000D+05-1.341104507446D-07-1.372971836828D+00-9.313225746155D-09
    9.590885427104D-01 2.366562500000D+02-2.710546312402D+00-7.960331579762D-09
    3.189418566371D-10 1.000000000000D+00 1.900000000000D+03 0.000000000000D+00
    2.000000000000D+00 0.000000000000D+00 2.328306436539D-09 2.200000000000D+01
    3.240000000000D+05 4.000000000000D+00
15 16  6  8 20  0  0.0-3.144438378513D-04-1.591615728103D-12 0.000000000000D+00
    4.600000000000D+01-9.781250000000D+00 5.429154717515D-09 1.670595021137D+00
   -5.010515451431D-07 8.138799807057D-03 6.102025508881D-06 5.153599048615D+03
    3.312000000000D+05-8.195638656616D-08-3.823593244692D-01 7.264316082001D-08
    9.308422556477D-01 2.475937500000D+02 4.828407670675D-01-8.532141112210D-09
   -3.593006806013D-10 1.000000000000D+00 1.900000000000D+03 0.000000000000D+00
    2.000000000000D+00 0.000000000000D+00-1.071020960808D-08 4.600000000000D+01
    3.240000000000D+05 4.000000000000D+00
16 16  6  8 20  0  0.0-1.213466748595D-05 2.501110429876D-12 0.000000000000D+00
    5.300000000000D+01 7.162500000000D+01 4.097670684432D-09-2.952686355079D+00
    3.630295395851D-06 8.729803259484D-03 3.600493073463D-06 5.153771741867D+03
    3.312000000000D+05-6.705522537231D-08 1.843708207584D+00-1.061707735062D-07
    9.905779991955D-01 3.297500000000D+02 3.901369971948D-01-7.922472859938D-09
    2.892977646988D-10 1.000000000000D+00 1.900000000000D+03 0.000000000000D+00
    2.000000000000D+00 0.000000000000D+00-1.071020960808D-08 5.300000000000D+01
    3.240000000000D+05 4.000000000000D+00
21 16  6  8 20  0  0.0-5.252449773252D-04-1.136868377216D-12 0.000000000000D+00
    7.100000000000D+01-5.481250000000D+01 4.877703175916D-09-1.364296971074D+00
   -2.725049853325D-06 2.335077978205D-02 1.031905412674D-05 5.153608299255D+03
    3.312000000000D+05 1.080334186554D-07-2.444494986365D+00 6.370246410370D-07
    9.366212677496D-01 1.655625000000D+02-1.784576122553D+00-8.196769999800D-09
   -4.678766317969D-11 1.000000000000D+00 1.900000000000D+03 0.000000000000D+00
    2.000000000000D+00 0.000000000000D+00-1.024454832077D-08 7.100000000000D+01
    3.240000000000D+05 4.000000000000D+00
11 16  6  8 20  0  0.0-6.498889997602D-04-1.250555214938D-12 0.000000000000D+00
    8.200000000000D+01-1.017812500000D+02 6.045608966737D-09-2.308328562579D-01
   -5.135312676430D-06 1.643345260527D-02 8.933246135712D-06 5.153670530319D+03
    3.312000000000D+05-1.806765794754D-07-2.788323415628D+00 8.009374141693D-08
    8.971131520437D-01 1.724375000000D+02 1.528263127642D+00-9.105022117861D-09
   -1.325055193867D-10 1.000000000000D+00 1.900000000000D+03 0.000000000000D+00
    4.000000000000D+00 0.000000000000D+00-1.210719347000D-08 8.200000000000D+01
    3.240300000000D+05 4.000000000000D+00
18 16  6  8 20  0  0.0 5.243960767984D-04 3.979039320257D-12 0.000000000000D+00
    7.300000000000D+01 3.315625000000D+01 5.305220983749D-09-2.257848785105D+00
    1.680105924606D-06 1.721817348152D-02 7.037073373795D-06 5.153685348511D+03
    3.312000000000D+05 2.048909664154D-07-1.402416403015D+00-1.024454832077D-07
    9.245787133746D-01 2.239375000000D+02-1.879371673637D+00-8.103551831175D-09
    3.710868858297D-10 1.000000000000D+00 1.900000000000D+03 0.000000000000D+00
    2.000000000000D+00 0.000000000000D+00-1.210719347000D-08 7.300000000000D+01
    3.240300000000D+05 4.000000000000D+00
26 16  6  8 20  0  0.0-3.898586146533D-04-1.148237060988D-11 0.000000000000D+00
    7.000000000000D+01 7.665625000000D+01 4.787699426899D-09-2.261907259254D+00
    3.827735781670D-06 1.013753819279D-03 3.667548298836D-06 5.153769439697D+03
    3.312000000000D+05 3.725290298462D-09 1.764634062172D+00-1.490116119385D-08
    9.602528119154D-01 3.115625000000D+02 1.911665464426D-01-8.348204879099D-09
    2.753686130652D-10 1.000000000000D+00 1.900000000000D+03 0.000000000000D+00
    2.000000000000D+00 0.000000000000D+00 6.984919309616D-09 7.000000000000D+01
    3.240300000000D+05 4.000000000000D+00
20 16  6  8 20  0  0.0 4.172455519438D-04 2.273736754432D-12 0.000000000000D+00
    1.010000000000D+02 2.165625000000D+01 5.414154092678D-09 1.667281134254D+00
    9.126961231232D-07 4.569404874928D-03 7.554888725281D-06 5.153744987488D+03
    3.312000000000D+05-1.862645149231D-09-1.454239920484D+00-1.415610313416D-07
    9.258506752940D-01 2.178750000000D+02 1.376211467452D+00-8.443923151864D-09
    2.907263956356D-10 1.000000000000D+00 1.900000000000D+03 0.000000000000D+00
    2.000000000000D+00 0.000000000000D+00-8.381903171539D-09 1.010000000000D+02
    3.240300000000D+05 4.000000000000D+00
27 16  6  8 20  0  0.0 1.013744622469D-04 4.206412995700D-12 0.000000000000D+00
    7.600000000000D+01-8.821875000000D+01 4.571976155444D-09 2.469839505198D+00
   -4.578381776810D-06 3.723152563907D-03 4.107132554054D-06 5.153643508911D+03
    3.312000000000D+05-1.825392246246D-07 2.815310036598D+00 3.725290298462D-09
    9.717251427669D-01 3.066250000000D+02 2.956916935688D-01-8.205341785421D-09
   -1.885792836555D-10 1.000000000000D+00 1.900000000000D+03 0.000000000000D+00
    2.000000000000D+00 0.000000000000D+00 1.396983861923D-09 7.600000000000D+01
    3.240300000000D+05 4.000000000000D+00
30 16  6  8 20  0  0.0 1.316103152931D-04 2.842170943040D-12 0.000000000000D+00
    9.000000000000D+01 6.865625000000D+01 4.470186201198D-09-2.201046006515D-01
    3.594905138016D-06 2.168727573007D-03 1.066923141479D-05 5.153600700378D+03
    3.312000000000D+05 9.313225746155D-09 7.921589076382D-01-5.587935447693D-09
    9.522356477969D-01 1.662500000000D+02 3.023905448177D+00-8.017119659500D-09
   -6.714565402886D-11 1.000000000000D+00 1.900000000000D+03 0.000000000000D+00
    2.000000000000D+00 0.000000000000D+00 3.259629011154D-09 9.000000000000D+01
    3.240300000000D+05 4.000000000000D+00
 9 16  6  8 20  0  0.0 1.448597759008D-04 7.275957614183D-12 0.000000000000D+00
    8.000000000000D+01-5.250000000000D+00 4.735911662834D-09 2.101311879526D+00
   -2.067536115646D-07 5.527600878850D-04 6.766989827156D-06 5.153559448242D+03
    3.312000000000D+05-6.146728992462D-08-3.295270108770D-01 8.009374141693D-08
    9.551666743888D-01 2.463437500000D+02 2.329209771016D+00-8.058550271528D-09
   -3.242992263619D-10 1.000000000000D+00 1.900000000000D+03 0.000000000000D+00
    2.000000000000D+00 0.000000000000D+00 1.396983861923D-09 8.000000000000D+01
    3.240300000000D+05
